{"type":"FeatureCollection","features":[{"type":"Feature","properties":{"segment_id":"GPXROAD_20260816_01_0","way_id":"GPXROAD_20260816_01","segment_index":0,"length_m":10.0,"highway":"track","name":"久根津598 GPX-confirmed farm road","road_source":"gpx_recovered"},"geometry":{"type":"LineString","coordinates":[[129.3000779276,28.1702563534],[129.30017996643134,28.170309259259238]]}},{"type":"Feature","properties":{"segment_id":"GPXROAD_20260816_01_1","way_id":"GPXROAD_20260816_01","segment_index":1,"length_m":10.0,"highway":"track","name":"久根津598 GPX-confirmed farm road","road_source":"gpx_recovered"},"geometry":{"type":"LineString","coordinates":[[129.30017996643134,28.170309259259238],[129.3002820053636,28.170362165038852]]}},{"type":"Feature","properties":{"segment_id":"GPXROAD_20260816_01_2","way_id":"GPXROAD_20260816_01","segment_index":2,"length_m":10.0,"highway":"track","name":"久根津598 GPX-confirmed farm road","road_source":"gpx_recovered"},"geometry":{"type":"LineString","coordinates":[[129.3002820053636,28.170362165038852],[129.3003840443968,28.170415070738837]]}},{"type":"Feature","properties":{"segment_id":"GPXROAD_20260816_01_3","way_id":"GPXROAD_20260816_01","segment_index":3,"length_m":10.0,"highway":"track","name":"久根津598 GPX-confirmed farm road","road_source":"gpx_recovered"},"geometry":{"type":"LineString","coordinates":[[129.3003840443968,28.170415070738837],[129.300486083531,28.170467976359185]]}},{"type":"Feature","properties":{"segment_id":"GPXROAD_20260816_01_4","way_id":"GPXROAD_20260816_01","segment_index":4,"length_m":10.0,"highway":"track","name":"久根津598 GPX-confirmed farm road","road_source":"gpx_recovered"},"geometry":{"type":"LineString","coordinates":[[129.300486083531,28.170467976359185],[129.30058812276615,28.1705208818999]]}},{"type":"Feature","properties":{"segment_id":"GPXROAD_20260816_01_5","way_id":"GPXROAD_20260816_01","segment_index":5,"length_m":10.0,"highway":"track","name":"久根津598 GPX-confirmed farm road","road_source":"gpx_recovered"},"geometry":{"type":"LineString","coordinates":[[129.30058812276615,28.1705208818999],[129.3006901621022,28.170573787360973]]}},{"type":"Feature","properties":{"segment_id":"GPXROAD_20260816_01_6","way_id":"GPXROAD_20260816_01","segment_index":6,"length_m":10.0,"highway":"track","name":"久根津598 GPX-confirmed farm road","road_source":"gpx_recovered"},"geometry":{"type":"LineString","coordinates":[[129.3006901621022,28.170573787360973],[129.30079220153916,28.1706266927424]]}},{"type":"Feature","properties":{"segment_id":"GPXROAD_20260816_01_7","way_id":"GPXROAD_20260816_01","segment_index":7,"length_m":10.0,"highway":"track","name":"久根津598 GPX-confirmed farm road","road_source":"gpx_recovered"},"geometry":{"type":"LineString","coordinates":[[129.30079220153916,28.1706266927424],[129.300894241077,28.17067959804418]]}},{"type":"Feature","properties":{"segment_id":"GPXROAD_20260816_01_8","way_id":"GPXROAD_20260816_01","segment_index":8,"length_m":10.0,"highway":"track","name":"久根津598 GPX-confirmed farm road","road_source":"gpx_recovered"},"geometry":{"type":"LineString","coordinates":[[129.300894241077,28.17067959804418],[129.3009962807157,28.170732503266304]]}},{"type":"Feature","properties":{"segment_id":"GPXROAD_20260816_01_9","way_id":"GPXROAD_20260816_01","segment_index":9,"length_m":10.0,"highway":"track","name":"久根津598 GPX-confirmed farm road","road_source":"gpx_recovered"},"geometry":{"type":"LineString","coordinates":[[129.3009962807157,28.170732503266304],[129.30109832045527,28.17078540840877]]}},{"type":"Feature","properties":{"segment_id":"GPXROAD_20260816_01_10","way_id":"GPXROAD_20260816_01","segment_index":10,"length_m":10.0,"highway":"track","name":"久根津598 GPX-confirmed farm road","road_source":"gpx_recovered"},"geometry":{"type":"LineString","coordinates":[[129.30109832045527,28.17078540840877],[129.30120036029566,28.170838313471567]]}},{"type":"Feature","properties":{"segment_id":"GPXROAD_20260816_01_11","way_id":"GPXROAD_20260816_01","segment_index":11,"length_m":10.0,"highway":"track","name":"久根津598 GPX-confirmed farm road","road_source":"gpx_recovered"},"geometry":{"type":"LineString","coordinates":[[129.30120036029566,28.170838313471567],[129.30130240023688,28.170891218454694]]}},{"type":"Feature","properties":{"segment_id":"GPXROAD_20260816_01_12","way_id":"GPXROAD_20260816_01","segment_index":12,"length_m":10.0,"highway":"track","name":"久根津598 GPX-confirmed farm road","road_source":"gpx_recovered"},"geometry":{"type":"LineString","coordinates":[[129.30130240023688,28.170891218454694],[129.3014044402789,28.170944123358142]]}},{"type":"Feature","properties":{"segment_id":"GPXROAD_20260816_01_13","way_id":"GPXROAD_20260816_01","segment_index":13,"length_m":10.0,"highway":"track","name":"久根津598 GPX-confirmed farm road","road_source":"gpx_recovered"},"geometry":{"type":"LineString","coordinates":[[129.3014044402789,28.170944123358142],[129.3015064804217,28.170997028181905]]}},{"type":"Feature","properties":{"segment_id":"GPXROAD_20260816_01_14","way_id":"GPXROAD_20260816_01","segment_index":14,"length_m":10.0,"highway":"track","name":"久根津598 GPX-confirmed farm road","road_source":"gpx_recovered"},"geometry":{"type":"LineString","coordinates":[[129.3015064804217,28.170997028181905],[129.30160852066528,28.171049932925975]]}},{"type":"Feature","properties":{"segment_id":"GPXROAD_20260816_01_15","way_id":"GPXROAD_20260816_01","segment_index":15,"length_m":10.0,"highway":"track","name":"久根津598 GPX-confirmed farm road","road_source":"gpx_recovered"},"geometry":{"type":"LineString","coordinates":[[129.30160852066528,28.171049932925975],[129.3017105610096,28.17110283759035]]}},{"type":"Feature","properties":{"segment_id":"GPXROAD_20260816_01_16","way_id":"GPXROAD_20260816_01","segment_index":16,"length_m":10.0,"highway":"track","name":"久根津598 GPX-confirmed farm road","road_source":"gpx_recovered"},"geometry":{"type":"LineString","coordinates":[[129.3017105610096,28.17110283759035],[129.30181260145466,28.17115574217502]]}},{"type":"Feature","properties":{"segment_id":"GPXROAD_20260816_01_17","way_id":"GPXROAD_20260816_01","segment_index":17,"length_m":10.0,"highway":"track","name":"久根津598 GPX-confirmed farm road","road_source":"gpx_recovered"},"geometry":{"type":"LineString","coordinates":[[129.30181260145466,28.17115574217502],[129.30191464200044,28.171208646679975]]}},{"type":"Feature","properties":{"segment_id":"GPXROAD_20260816_01_18","way_id":"GPXROAD_20260816_01","segment_index":18,"length_m":10.0,"highway":"track","name":"久根津598 GPX-confirmed farm road","road_source":"gpx_recovered"},"geometry":{"type":"LineString","coordinates":[[129.30191464200044,28.171208646679975],[129.30201668264693,28.171261551105213]]}},{"type":"Feature","properties":{"segment_id":"GPXROAD_20260816_01_19","way_id":"GPXROAD_20260816_01","segment_index":19,"length_m":10.0,"highway":"track","name":"久根津598 GPX-confirmed farm road","road_source":"gpx_recovered"},"geometry":{"type":"LineString","coordinates":[[129.30201668264693,28.171261551105213],[129.30211872339412,28.171314455450728]]}},{"type":"Feature","properties":{"segment_id":"GPXROAD_20260816_01_20","way_id":"GPXROAD_20260816_01","segment_index":20,"length_m":10.0,"highway":"track","name":"久根津598 GPX-confirmed farm road","road_source":"gpx_recovered"},"geometry":{"type":"LineString","coordinates":[[129.30211872339412,28.171314455450728],[129.302220764242,28.171367359716515]]}},{"type":"Feature","properties":{"segment_id":"GPXROAD_20260816_01_21","way_id":"GPXROAD_20260816_01","segment_index":21,"length_m":10.0,"highway":"track","name":"久根津598 GPX-confirmed farm road","road_source":"gpx_recovered"},"geometry":{"type":"LineString","coordinates":[[129.302220764242,28.171367359716515],[129.30232280519057,28.171420263902566]]}},{"type":"Feature","properties":{"segment_id":"GPXROAD_20260816_01_22","way_id":"GPXROAD_20260816_01","segment_index":22,"length_m":10.0,"highway":"track","name":"久根津598 GPX-confirmed farm road","road_source":"gpx_recovered"},"geometry":{"type":"LineString","coordinates":[[129.30232280519057,28.171420263902566],[129.3024248462398,28.17147316800888]]}},{"type":"Feature","properties":{"segment_id":"GPXROAD_20260816_01_23","way_id":"GPXROAD_20260816_01","segment_index":23,"length_m":10.0,"highway":"track","name":"久根津598 GPX-confirmed farm road","road_source":"gpx_recovered"},"geometry":{"type":"LineString","coordinates":[[129.3024248462398,28.17147316800888],[129.3025268873897,28.17152607203545]]}},{"type":"Feature","properties":{"segment_id":"GPXROAD_20260816_01_24","way_id":"GPXROAD_20260816_01","segment_index":24,"length_m":10.0,"highway":"track","name":"久根津598 GPX-confirmed farm road","road_source":"gpx_recovered"},"geometry":{"type":"LineString","coordinates":[[129.3025268873897,28.17152607203545],[129.30262892864025,28.17157897598227]]}},{"type":"Feature","properties":{"segment_id":"GPXROAD_20260816_01_25","way_id":"GPXROAD_20260816_01","segment_index":25,"length_m":10.0,"highway":"track","name":"久根津598 GPX-confirmed farm road","road_source":"gpx_recovered"},"geometry":{"type":"LineString","coordinates":[[129.30262892864025,28.17157897598227],[129.30273096999142,28.171631879849335]]}},{"type":"Feature","properties":{"segment_id":"GPXROAD_20260816_01_26","way_id":"GPXROAD_20260816_01","segment_index":26,"length_m":10.0,"highway":"track","name":"久根津598 GPX-confirmed farm road","road_source":"gpx_recovered"},"geometry":{"type":"LineString","coordinates":[[129.30273096999142,28.171631879849335],[129.3028330114432,28.171684783636637]]}},{"type":"Feature","properties":{"segment_id":"GPXROAD_20260816_01_27","way_id":"GPXROAD_20260816_01","segment_index":27,"length_m":10.0,"highway":"track","name":"久根津598 GPX-confirmed farm road","road_source":"gpx_recovered"},"geometry":{"type":"LineString","coordinates":[[129.3028330114432,28.171684783636637],[129.30293505299558,28.17173768734417]]}},{"type":"Feature","properties":{"segment_id":"GPXROAD_20260816_01_28","way_id":"GPXROAD_20260816_01","segment_index":28,"length_m":10.0,"highway":"track","name":"久根津598 GPX-confirmed farm road","road_source":"gpx_recovered"},"geometry":{"type":"LineString","coordinates":[[129.30293505299558,28.17173768734417],[129.30303709464853,28.171790590971932]]}},{"type":"Feature","properties":{"segment_id":"GPXROAD_20260816_01_29","way_id":"GPXROAD_20260816_01","segment_index":29,"length_m":10.0,"highway":"track","name":"久根津598 GPX-confirmed farm road","road_source":"gpx_recovered"},"geometry":{"type":"LineString","coordinates":[[129.30303709464853,28.171790590971932],[129.30313913640206,28.17184349451991]]}},{"type":"Feature","properties":{"segment_id":"GPXROAD_20260816_01_30","way_id":"GPXROAD_20260816_01","segment_index":30,"length_m":10.0,"highway":"track","name":"久根津598 GPX-confirmed farm road","road_source":"gpx_recovered"},"geometry":{"type":"LineString","coordinates":[[129.30313913640206,28.17184349451991],[129.30324117825614,28.1718963979881]]}},{"type":"Feature","properties":{"segment_id":"GPXROAD_20260816_01_31","way_id":"GPXROAD_20260816_01","segment_index":31,"length_m":10.0,"highway":"track","name":"久根津598 GPX-confirmed farm road","road_source":"gpx_recovered"},"geometry":{"type":"LineString","coordinates":[[129.30324117825614,28.1718963979881],[129.30334322021077,28.1719493013765]]}},{"type":"Feature","properties":{"segment_id":"GPXROAD_20260816_01_32","way_id":"GPXROAD_20260816_01","segment_index":32,"length_m":10.0,"highway":"track","name":"久根津598 GPX-confirmed farm road","road_source":"gpx_recovered"},"geometry":{"type":"LineString","coordinates":[[129.30334322021077,28.1719493013765],[129.30344526226593,28.1720022046851]]}},{"type":"Feature","properties":{"segment_id":"GPXROAD_20260816_01_33","way_id":"GPXROAD_20260816_01","segment_index":33,"length_m":10.0,"highway":"track","name":"久根津598 GPX-confirmed farm road","road_source":"gpx_recovered"},"geometry":{"type":"LineString","coordinates":[[129.30344526226593,28.1720022046851],[129.3035473044216,28.17205510791389]]}},{"type":"Feature","properties":{"segment_id":"GPXROAD_20260816_01_34","way_id":"GPXROAD_20260816_01","segment_index":34,"length_m":10.0,"highway":"track","name":"久根津598 GPX-confirmed farm road","road_source":"gpx_recovered"},"geometry":{"type":"LineString","coordinates":[[129.3035473044216,28.17205510791389],[129.30364934667777,28.17210801106286]]}},{"type":"Feature","properties":{"segment_id":"GPXROAD_20260816_01_35","way_id":"GPXROAD_20260816_01","segment_index":35,"length_m":10.0,"highway":"track","name":"久根津598 GPX-confirmed farm road","road_source":"gpx_recovered"},"geometry":{"type":"LineString","coordinates":[[129.30364934667777,28.17210801106286],[129.30375138903443,28.172160914131998]]}},{"type":"Feature","properties":{"segment_id":"GPXROAD_20260816_01_36","way_id":"GPXROAD_20260816_01","segment_index":36,"length_m":10.0,"highway":"track","name":"久根津598 GPX-confirmed farm road","road_source":"gpx_recovered"},"geometry":{"type":"LineString","coordinates":[[129.30375138903443,28.172160914131998],[129.30385343149156,28.17221381712129]]}},{"type":"Feature","properties":{"segment_id":"GPXROAD_20260816_01_37","way_id":"GPXROAD_20260816_01","segment_index":37,"length_m":10.0,"highway":"track","name":"久根津598 GPX-confirmed farm road","road_source":"gpx_recovered"},"geometry":{"type":"LineString","coordinates":[[129.30385343149156,28.17221381712129],[129.30395547404914,28.17226672003073]]}},{"type":"Feature","properties":{"segment_id":"GPXROAD_20260816_01_38","way_id":"GPXROAD_20260816_01","segment_index":38,"length_m":10.0,"highway":"track","name":"久根津598 GPX-confirmed farm road","road_source":"gpx_recovered"},"geometry":{"type":"LineString","coordinates":[[129.30395547404914,28.17226672003073],[129.30405751670715,28.172319622860306]]}},{"type":"Feature","properties":{"segment_id":"GPXROAD_20260816_01_39","way_id":"GPXROAD_20260816_01","segment_index":39,"length_m":10.0,"highway":"track","name":"久根津598 GPX-confirmed farm road","road_source":"gpx_recovered"},"geometry":{"type":"LineString","coordinates":[[129.30405751670715,28.172319622860306],[129.30415955946557,28.17237252561001]]}},{"type":"Feature","properties":{"segment_id":"GPXROAD_20260816_01_40","way_id":"GPXROAD_20260816_01","segment_index":40,"length_m":10.0,"highway":"track","name":"久根津598 GPX-confirmed farm road","road_source":"gpx_recovered"},"geometry":{"type":"LineString","coordinates":[[129.30415955946557,28.17237252561001],[129.3042616023244,28.17242542827983]]}},{"type":"Feature","properties":{"segment_id":"GPXROAD_20260816_01_41","way_id":"GPXROAD_20260816_01","segment_index":41,"length_m":10.0,"highway":"track","name":"久根津598 GPX-confirmed farm road","road_source":"gpx_recovered"},"geometry":{"type":"LineString","coordinates":[[129.3042616023244,28.17242542827983],[129.3043636452836,28.172478330869758]]}},{"type":"Feature","properties":{"segment_id":"GPXROAD_20260816_01_42","way_id":"GPXROAD_20260816_01","segment_index":42,"length_m":10.0,"highway":"track","name":"久根津598 GPX-confirmed farm road","road_source":"gpx_recovered"},"geometry":{"type":"LineString","coordinates":[[129.3043636452836,28.172478330869758],[129.30446568834317,28.172531233379777]]}},{"type":"Feature","properties":{"segment_id":"GPXROAD_20260816_01_43","way_id":"GPXROAD_20260816_01","segment_index":43,"length_m":10.0,"highway":"track","name":"久根津598 GPX-confirmed farm road","road_source":"gpx_recovered"},"geometry":{"type":"LineString","coordinates":[[129.30446568834317,28.172531233379777],[129.30456773150308,28.172584135809884]]}},{"type":"Feature","properties":{"segment_id":"GPXROAD_20260816_01_44","way_id":"GPXROAD_20260816_01","segment_index":44,"length_m":10.0,"highway":"track","name":"久根津598 GPX-confirmed farm road","road_source":"gpx_recovered"},"geometry":{"type":"LineString","coordinates":[[129.30456773150308,28.172584135809884],[129.3046697747633,28.17263703816007]]}},{"type":"Feature","properties":{"segment_id":"GPXROAD_20260816_01_45","way_id":"GPXROAD_20260816_01","segment_index":45,"length_m":10.0,"highway":"track","name":"久根津598 GPX-confirmed farm road","road_source":"gpx_recovered"},"geometry":{"type":"LineString","coordinates":[[129.3046697747633,28.17263703816007],[129.30477181812384,28.17268994043033]]}},{"type":"Feature","properties":{"segment_id":"GPXROAD_20260816_01_46","way_id":"GPXROAD_20260816_01","segment_index":46,"length_m":10.0,"highway":"track","name":"久根津598 GPX-confirmed farm road","road_source":"gpx_recovered"},"geometry":{"type":"LineString","coordinates":[[129.30477181812384,28.17268994043033],[129.30487386158466,28.172742842620647]]}},{"type":"Feature","properties":{"segment_id":"GPXROAD_20260816_01_47","way_id":"GPXROAD_20260816_01","segment_index":47,"length_m":10.0,"highway":"track","name":"久根津598 GPX-confirmed farm road","road_source":"gpx_recovered"},"geometry":{"type":"LineString","coordinates":[[129.30487386158466,28.172742842620647],[129.30497590514576,28.172795744730998]]}},{"type":"Feature","properties":{"segment_id":"GPXROAD_20260816_01_48","way_id":"GPXROAD_20260816_01","segment_index":48,"length_m":10.0,"highway":"track","name":"久根津598 GPX-confirmed farm road","road_source":"gpx_recovered"},"geometry":{"type":"LineString","coordinates":[[129.30497590514576,28.172795744730998],[129.3050779488071,28.172848646761385]]}},{"type":"Feature","properties":{"segment_id":"GPXROAD_20260816_01_49","way_id":"GPXROAD_20260816_01","segment_index":49,"length_m":2.0730376279191,"highway":"track","name":"久根津598 GPX-confirmed farm road","road_source":"gpx_recovered"},"geometry":{"type":"LineString","coordinates":[[129.3050779488071,28.172848646761385],[129.3050991032,28.1728596129]]}}]}